[{"OBJECT_NAME":"NOAA 17","OBJECT_ID":"2002-032A","EPOCH":"2026-04-02T07:38:32.354592","MEAN_MOTION":14.26203345,"ECCENTRICITY":0.00110407,"INCLINATION":98.8584,"RA_OF_ASC_NODE":57.2045,"ARG_OF_PERICENTER":207.1069,"MEAN_ANOMALY":152.9535,"EPHEMERIS_TYPE":0,"CLASSIFICATION_TYPE":"U","NORAD_CAT_ID":27453,"ELEMENT_SET_NO":999,"REV_AT_EPOCH":23617,"BSTAR":0.00015536553,"MEAN_MOTION_DOT":3.27e-6,"MEAN_MOTION_DDOT":0},{"OBJECT_NAME":"NOAA 18","OBJECT_ID":"2005-018A","EPOCH":"2026-04-02T06:02:08.045664","MEAN_MOTION":14.13715789,"ECCENTRICITY":0.00143231,"INCLINATION":98.8126,"RA_OF_ASC_NODE":173.0253,"ARG_OF_PERICENTER":11.4086,"MEAN_ANOMALY":348.7409,"EPHEMERIS_TYPE":0,"CLASSIFICATION_TYPE":"U","NORAD_CAT_ID":28654,"ELEMENT_SET_NO":999,"REV_AT_EPOCH":7558,"BSTAR":7.2971293e-5,"MEAN_MOTION_DOT":9.4e-7,"MEAN_MOTION_DDOT":0},{"OBJECT_NAME":"NOAA 19","OBJECT_ID":"2009-005A","EPOCH":"2026-04-02T05:41:05.310528","MEAN_MOTION":14.13461463,"ECCENTRICITY":0.00128618,"INCLINATION":98.9564,"RA_OF_ASC_NODE":163.0426,"ARG_OF_PERICENTER":242.8475,"MEAN_ANOMALY":117.1386,"EPHEMERIS_TYPE":0,"CLASSIFICATION_TYPE":"U","NORAD_CAT_ID":33591,"ELEMENT_SET_NO":999,"REV_AT_EPOCH":88375,"BSTAR":6.6314706e-5,"MEAN_MOTION_DOT":8.0e-7,"MEAN_MOTION_DDOT":0},{"OBJECT_NAME":"SUOMI NPP","OBJECT_ID":"2011-061A","EPOCH":"2026-04-02T06:51:17.374464","MEAN_MOTION":14.19500079,"ECCENTRICITY":0.00019081,"INCLINATION":98.79,"RA_OF_ASC_NODE":33.7041,"ARG_OF_PERICENTER":148.9025,"MEAN_ANOMALY":211.2264,"EPHEMERIS_TYPE":0,"CLASSIFICATION_TYPE":"U","NORAD_CAT_ID":37849,"ELEMENT_SET_NO":999,"REV_AT_EPOCH":74767,"BSTAR":8.7085964e-5,"MEAN_MOTION_DOT":1.39e-6,"MEAN_MOTION_DDOT":0},{"OBJECT_NAME":"NOAA 20 (JPSS-1)","OBJECT_ID":"2017-073A","EPOCH":"2026-04-02T07:11:52.283616","MEAN_MOTION":14.19542399,"ECCENTRICITY":0.00020056,"INCLINATION":98.7721,"RA_OF_ASC_NODE":32.4563,"ARG_OF_PERICENTER":105.8177,"MEAN_ANOMALY":254.322,"EPHEMERIS_TYPE":0,"CLASSIFICATION_TYPE":"U","NORAD_CAT_ID":43013,"ELEMENT_SET_NO":999,"REV_AT_EPOCH":43370,"BSTAR":8.186681e-5,"MEAN_MOTION_DOT":1.28e-6,"MEAN_MOTION_DDOT":0},{"OBJECT_NAME":"NOAA 21 (JPSS-2)","OBJECT_ID":"2022-150A","EPOCH":"2026-04-02T06:19:58.233216","MEAN_MOTION":14.19558519,"ECCENTRICITY":0.00026762,"INCLINATION":98.7583,"RA_OF_ASC_NODE":32.2635,"ARG_OF_PERICENTER":65.5864,"MEAN_ANOMALY":294.5591,"EPHEMERIS_TYPE":0,"CLASSIFICATION_TYPE":"U","NORAD_CAT_ID":54234,"ELEMENT_SET_NO":999,"REV_AT_EPOCH":17577,"BSTAR":7.4150138e-5,"MEAN_MOTION_DOT":1.12e-6,"MEAN_MOTION_DDOT":0}]
