{"fetched_at":"2026-04-03T08:55:45Z","count":9961,"tles":[{"name":"NOAA 19","line1":"1 33591U 09005A   26092.23686702  .00000080  00000+0  66315-4 0  9990","line2":"2 33591  98.9564 163.0426 0012861 242.8475 117.1386 14.13461463883757","category":"Weather"},{"name":"NOAA 18","line1":"1 28654U 05018A   26092.25148201  .00000094  00000+0  72971-4 0  9993","line2":"2 28654  98.8126 173.0253 0014323  11.4086 348.7409 14.13715789 75581","category":"Weather"},{"name":"NOAA 20 (JPSS-1)","line1":"1 43013U 17073A   26092.29991069  .00000128  00000+0  81867-4 0  9997","line2":"2 43013  98.7721  32.4563 0002005 105.8177 254.3220 14.19542399433708","category":"Weather"},{"name":"SUOMI NPP","line1":"1 37849U 11061A   26092.28561776  .00000139  00000+0  87086-4 0  9996","line2":"2 37849  98.7900  33.7041 0001908 148.9025 211.2264 14.19500079747676","category":"Weather"},{"name":"NOAA 21 (JPSS-2)","line1":"1 54234U 22150A   26092.26386844  .00000112  00000+0  74150-4 0  9992","line2":"2 54234  98.7583  32.2635 0002676  65.5864 294.5591 14.19558519175776","category":"Weather"},{"name":"NOAA 17","line1":"1 27453U 02032A   26092.31843003  .00000327  00000+0  15537-3 0  9994","line2":"2 27453  98.8584  57.2045 0011040 207.1069 152.9535 14.26203345236178","category":"Weather"}]}